{"fetched_at":"2026-07-24T07:06:03.132Z","source":"https://celestrak.org/NORAD/elements/gp.php?GROUP=globalstar&FORMAT=JSON","constellation":"globalstar","records":[{"OBJECT_NAME":"GLOBALSTAR M080","OBJECT_ID":"2011-080B","EPOCH":"2026-07-23T08:26:04.663968","CLASSIFICATION_TYPE":"U","MEAN_MOTION":12.62257668,"ECCENTRICITY":0.0000293,"INCLINATION":52.0053,"RA_OF_ASC_NODE":268.9195,"ARG_OF_PERICENTER":63.2595,"MEAN_ANOMALY":15.1079,"EPHEMERIS_TYPE":0,"NORAD_CAT_ID":38041,"ELEMENT_SET_NO":999,"REV_AT_EPOCH":67345,"BSTAR":0.000068017,"MEAN_MOTION_DOT":-9.2e-7,"MEAN_MOTION_DDOT":0},{"OBJECT_NAME":"GLOBALSTAR M082","OBJECT_ID":"2011-080C","EPOCH":"2026-07-23T11:12:12.083328","CLASSIFICATION_TYPE":"U","MEAN_MOTION":12.622644,"ECCENTRICITY":0.0000236,"INCLINATION":52.0049,"RA_OF_ASC_NODE":224.0712,"ARG_OF_PERICENTER":43.8468,"MEAN_ANOMALY":129.1413,"EPHEMERIS_TYPE":0,"NORAD_CAT_ID":38042,"ELEMENT_SET_NO":999,"REV_AT_EPOCH":67417,"BSTAR":0.00012028,"MEAN_MOTION_DOT":-8.2e-7,"MEAN_MOTION_DDOT":0},{"OBJECT_NAME":"GLOBALSTAR M092","OBJECT_ID":"2011-080D","EPOCH":"2026-07-23T18:07:55.632000","CLASSIFICATION_TYPE":"U","MEAN_MOTION":12.62268019,"ECCENTRICITY":0.0000691,"INCLINATION":52.0104,"RA_OF_ASC_NODE":313.5917,"ARG_OF_PERICENTER":113.821,"MEAN_ANOMALY":51.1564,"EPHEMERIS_TYPE":0,"NORAD_CAT_ID":38043,"ELEMENT_SET_NO":999,"REV_AT_EPOCH":67266,"BSTAR":0.000074163,"MEAN_MOTION_DOT":-9e-7,"MEAN_MOTION_DDOT":0},{"OBJECT_NAME":"GLOBALSTAR M090","OBJECT_ID":"2011-080E","EPOCH":"2026-07-23T05:43:23.288736","CLASSIFICATION_TYPE":"U","MEAN_MOTION":12.62269634,"ECCENTRICITY":0.0000392,"INCLINATION":52.0096,"RA_OF_ASC_NODE":218.7334,"ARG_OF_PERICENTER":79.0708,"MEAN_ANOMALY":14.7144,"EPHEMERIS_TYPE":0,"NORAD_CAT_ID":38044,"ELEMENT_SET_NO":999,"REV_AT_EPOCH":67426,"BSTAR":0.000080019,"MEAN_MOTION_DOT":-8.9e-7,"MEAN_MOTION_DDOT":0},{"OBJECT_NAME":"GLOBALSTAR M086","OBJECT_ID":"2011-080F","EPOCH":"2026-07-23T08:10:46.998336","CLASSIFICATION_TYPE":"U","MEAN_MOTION":12.62287844,"ECCENTRICITY":0.0001381,"INCLINATION":51.9867,"RA_OF_ASC_NODE":218.2913,"ARG_OF_PERICENTER":123.102,"MEAN_ANOMALY":340.3198,"EPHEMERIS_TYPE":0,"NORAD_CAT_ID":38045,"ELEMENT_SET_NO":999,"REV_AT_EPOCH":67422,"BSTAR":0.000081517,"MEAN_MOTION_DOT":-8.9e-7,"MEAN_MOTION_DDOT":0},{"OBJECT_NAME":"GLOBALSTAR M097","OBJECT_ID":"2013-005A","EPOCH":"2026-07-23T19:48:06.752160","CLASSIFICATION_TYPE":"U","MEAN_MOTION":12.62271309,"ECCENTRICITY":0.000062,"INCLINATION":52.0037,"RA_OF_ASC_NODE":131.8059,"ARG_OF_PERICENTER":51.1747,"MEAN_ANOMALY":308.9175,"EPHEMERIS_TYPE":0,"NORAD_CAT_ID":39072,"ELEMENT_SET_NO":999,"REV_AT_EPOCH":62153,"BSTAR":-0.000052143,"MEAN_MOTION_DOT":-0.00000113,"MEAN_MOTION_DDOT":0},{"OBJECT_NAME":"GLOBALSTAR M093","OBJECT_ID":"2013-005B","EPOCH":"2026-07-23T03:57:25.232832","CLASSIFICATION_TYPE":"U","MEAN_MOTION":12.62266458,"ECCENTRICITY":0.00008241,"INCLINATION":52.0101,"RA_OF_ASC_NODE":127.177,"ARG_OF_PERICENTER":55.3218,"MEAN_ANOMALY":304.7727,"EPHEMERIS_TYPE":0,"NORAD_CAT_ID":39073,"ELEMENT_SET_NO":999,"REV_AT_EPOCH":62140,"BSTAR":0.000026942001,"MEAN_MOTION_DOT":-9.9e-7,"MEAN_MOTION_DDOT":0},{"OBJECT_NAME":"GLOBALSTAR M094","OBJECT_ID":"2013-005C","EPOCH":"2026-07-23T13:27:20.978208","CLASSIFICATION_TYPE":"U","MEAN_MOTION":12.62264263,"ECCENTRICITY":0.0001049,"INCLINATION":51.9969,"RA_OF_ASC_NODE":40.0524,"ARG_OF_PERICENTER":77.3511,"MEAN_ANOMALY":282.7473,"EPHEMERIS_TYPE":0,"NORAD_CAT_ID":39074,"ELEMENT_SET_NO":999,"REV_AT_EPOCH":62306,"BSTAR":5.9948e-7,"MEAN_MOTION_DOT":-0.00000104,"MEAN_MOTION_DDOT":0},{"OBJECT_NAME":"GLOBALSTAR M096","OBJECT_ID":"2013-005D","EPOCH":"2026-07-23T15:40:50.705760","CLASSIFICATION_TYPE":"U","MEAN_MOTION":12.62265949,"ECCENTRICITY":0.0000879,"INCLINATION":52.0077,"RA_OF_ASC_NODE":88.6013,"ARG_OF_PERICENTER":57.2222,"MEAN_ANOMALY":302.8729,"EPHEMERIS_TYPE":0,"NORAD_CAT_ID":39075,"ELEMENT_SET_NO":999,"REV_AT_EPOCH":62199,"BSTAR":0.0000093222,"MEAN_MOTION_DOT":-0.00000102,"MEAN_MOTION_DDOT":0},{"OBJECT_NAME":"GLOBALSTAR M078","OBJECT_ID":"2013-005E","EPOCH":"2026-07-23T20:44:16.058400","CLASSIFICATION_TYPE":"U","MEAN_MOTION":12.6226014,"ECCENTRICITY":0.0001049,"INCLINATION":51.9853,"RA_OF_ASC_NODE":171.9187,"ARG_OF_PERICENTER":2.1931,"MEAN_ANOMALY":357.894,"EPHEMERIS_TYPE":0,"NORAD_CAT_ID":39076,"ELEMENT_SET_NO":999,"REV_AT_EPOCH":62064,"BSTAR":0.000057166,"MEAN_MOTION_DOT":-9.4e-7,"MEAN_MOTION_DDOT":0},{"OBJECT_NAME":"GLOBALSTAR M095","OBJECT_ID":"2013-005F","EPOCH":"2026-07-23T04:16:25.857984","CLASSIFICATION_TYPE":"U","MEAN_MOTION":12.62264106,"ECCENTRICITY":0.00006382,"INCLINATION":52.006,"RA_OF_ASC_NODE":171.6621,"ARG_OF_PERICENTER":25.4631,"MEAN_ANOMALY":334.6267,"EPHEMERIS_TYPE":0,"NORAD_CAT_ID":39077,"ELEMENT_SET_NO":999,"REV_AT_EPOCH":62041,"BSTAR":0.000048282799,"MEAN_MOTION_DOT":-9.5e-7,"MEAN_MOTION_DDOT":0},{"OBJECT_NAME":"GLOBALSTAR M087","OBJECT_ID":"2022-064A","EPOCH":"2026-07-23T17:53:26.093760","CLASSIFICATION_TYPE":"U","MEAN_MOTION":12.62269361,"ECCENTRICITY":0.0000808,"INCLINATION":52.0016,"RA_OF_ASC_NODE":311.1545,"ARG_OF_PERICENTER":95.88,"MEAN_ANOMALY":264.2158,"EPHEMERIS_TYPE":0,"NORAD_CAT_ID":52888,"ELEMENT_SET_NO":999,"REV_AT_EPOCH":19575,"BSTAR":-0.0000048304,"MEAN_MOTION_DOT":-0.00000105,"MEAN_MOTION_DDOT":0}]}
