GLOBALSTAR M080         
1 38041U 11080B   26204.35144287 -.00000092  00000+0  68017-4 0  9991
2 38041  52.0053 268.9195 0000293  63.2595  15.1079 12.62257668673450
GLOBALSTAR M082         
1 38042U 11080C   26204.46680652 -.00000082  00000+0  12028-3 0  9994
2 38042  52.0049 224.0712 0000236  43.8468 129.1413 12.62264400674174
GLOBALSTAR M092         
1 38043U 11080D   26204.75550500 -.00000090  00000+0  74163-4 0  9993
2 38043  52.0104 313.5917 0000691 113.8210  51.1564 12.62268019672669
GLOBALSTAR M090         
1 38044U 11080E   26204.23846399 -.00000089  00000+0  80019-4 0  9996
2 38044  52.0096 218.7334 0000392  79.0708  14.7144 12.62269634674263
GLOBALSTAR M086         
1 38045U 11080F   26204.34082174 -.00000089  00000+0  81517-4 0  9996
2 38045  51.9867 218.2913 0001381 123.1020 340.3198 12.62287844674229
GLOBALSTAR M097         
1 39072U 13005A   26204.82507815 -.00000113  00000+0 -52143-4 0  9995
2 39072  52.0037 131.8059 0000620  51.1747 308.9175 12.62271309621533
GLOBALSTAR M093         
1 39073U 13005B   26204.16487538 -.00000099  00000+0  26942-4 0  9992
2 39073  52.0101 127.1770 0000824  55.3218 304.7727 12.62266458621401
GLOBALSTAR M094         
1 39074U 13005C   26204.56065947 -.00000104  00000+0  59948-6 0  9994
2 39074  51.9969  40.0524 0001049  77.3511 282.7473 12.62264263623061
GLOBALSTAR M096         
1 39075U 13005D   26204.65336465 -.00000102  00000+0  93222-5 0  9991
2 39075  52.0077  88.6013 0000879  57.2222 302.8729 12.62265949621991
GLOBALSTAR M078         
1 39076U 13005E   26204.86407475 -.00000094  00000+0  57166-4 0  9991
2 39076  51.9853 171.9187 0001049   2.1931 357.8940 12.62260140620640
GLOBALSTAR M095         
1 39077U 13005F   26204.17807706 -.00000095  00000+0  48283-4 0  9998
2 39077  52.0060 171.6621 0000638  25.4631 334.6267 12.62264106620417
GLOBALSTAR M087         
1 52888U 22064A   26204.74544090 -.00000105  00000+0 -48304-5 0  9993
2 52888  52.0016 311.1545 0000808  95.8800 264.2158 12.62269361195756
